[{"OBJECT_NAME":"STARLINK-1471","OBJECT_ID":"2020-038F","EPOCH":"2026-03-09T12:24:52.214400","MEAN_MOTION":15.48889608,"ECCENTRICITY":7.356e-5,"INCLINATION":53.0461,"RA_OF_ASC_NODE":142.8505,"ARG_OF_PERICENTER":252.2719,"MEAN_ANOMALY":107.8208,"EPHEMERIS_TYPE":0,"CLASSIFICATION_TYPE":"U","NORAD_CAT_ID":45735,"ELEMENT_SET_NO":999,"REV_AT_EPOCH":31750,"BSTAR":0.00048031004,"MEAN_MOTION_DOT":0.00025966,"MEAN_MOTION_DDOT":0},{"OBJECT_NAME":"SHIYAN-32 01","OBJECT_ID":"2025-255A","EPOCH":"2026-03-09T23:03:58.906080","MEAN_MOTION":15.47052613,"ECCENTRICITY":0.00126665,"INCLINATION":52.9936,"RA_OF_ASC_NODE":122.2768,"ARG_OF_PERICENTER":323.2691,"MEAN_ANOMALY":36.7446,"EPHEMERIS_TYPE":0,"CLASSIFICATION_TYPE":"U","NORAD_CAT_ID":66376,"ELEMENT_SET_NO":999,"REV_AT_EPOCH":1883,"BSTAR":0.00048306269,"MEAN_MOTION_DOT":0.00024542,"MEAN_MOTION_DDOT":0}]
